$$SOE
2460728.500000000, A.D. 2025-Feb-22 00:00:00.0000, 6.066951044202059E+09, 9.276938025238451E+09, -5.829905514772129E+07,
2460735.500000000, A.D. 2025-Mar-01 00:00:00.0000, 6.065782350538225E+09, 9.278312033512257E+09, -5.800086762103224E+07,
2460742.500000000, A.D. 2025-Mar-08 00:00:00.0000, 6.064613437038990E+09, 9.279685621466869E+09, -5.770267786877871E+07,
2460749.500000000, A.D. 2025-Mar-15 00:00:00.0000, 6.063444308198040E+09, 9.281058791096231E+09, -5.740448621830988E+07,
2460756.500000000, A.D. 2025-Mar-22 00:00:00.0000, 6.062274967338370E+09, 9.282431546536882E+09, -5.710629274848986E+07,
2460763.500000000, A.D. 2025-Mar-29 00:00:00.0000, 6.061105415751225E+09, 9.283803892235826E+09, -5.680809735456419E+07,
2460770.500000000, A.D. 2025-Apr-05 00:00:00.0000, 6.059935653529595E+09, 9.285175832002117E+09, -5.650989989544535E+07,
2460777.500000000, A.D. 2025-Apr-12 00:00:00.0000, 6.058765680170345E+09, 9.286547369046368E+09, -5.621170023856831E+07,
2460784.500000000, A.D. 2025-Apr-19 00:00:00.0000, 6.057595494757766E+09, 9.287918506127113E+09, -5.591349825745392E+07,
2460791.500000000, A.D. 2025-Apr-26 00:00:00.0000, 6.056425096000209E+09, 9.289289245601322E+09, -5.561529382376719E+07,
2460798.500000000, A.D. 2025-May-03 00:00:00.0000, 6.055254482233487E+09, 9.290659589398647E+09, -5.531708680293226E+07,
2460805.500000000, A.D. 2025-May-10 00:00:00.0000, 6.054083651419621E+09, 9.292029538928368E+09, -5.501887705541277E+07,
2460812.500000000, A.D. 2025-May-17 00:00:00.0000, 6.052912601177674E+09, 9.293399094878403E+09, -5.472066445051241E+07,
2460819.500000000, A.D. 2025-May-24 00:00:00.0000, 6.051741329020584E+09, 9.294768256852123E+09, -5.442244891318369E+07,
2460826.500000000, A.D. 2025-May-31 00:00:00.0000, 6.050569833215779E+09, 9.296137023154257E+09, -5.412423051681137E+07,
2460833.500000000, A.D. 2025-Jun-07 00:00:00.0000, 6.049398113868628E+09, 9.297505391930872E+09, -5.382600948674583E+07,
2460840.500000000, A.D. 2025-Jun-14 00:00:00.0000, 6.048226171864170E+09, 9.298873362996780E+09, -5.352778595220947E+07,
2460847.500000000, A.D. 2025-Jun-21 00:00:00.0000, 6.047054006883904E+09, 9.300240937079224E+09, -5.322955982550812E+07,
2460854.500000000, A.D. 2025-Jun-28 00:00:00.0000, 6.045881617625814E+09, 9.301608114242634E+09, -5.293133095119667E+07,
2460861.500000000, A.D. 2025-Jul-05 00:00:00.0000, 6.044709002710927E+09, 9.302974893651163E+09, -5.263309920981979E+07,
2460868.500000000, A.D. 2025-Jul-12 00:00:00.0000, 6.043536161085394E+09, 9.304341273863743E+09, -5.233486453276253E+07,
2460875.500000000, A.D. 2025-Jul-19 00:00:00.0000, 6.042363092107666E+09, 9.305707253086786E+09, -5.203662689249182E+07,
2460882.500000000, A.D. 2025-Jul-26 00:00:00.0000, 6.041189795530697E+09, 9.307072829328085E+09, -5.173838629201221E+07,
2460889.500000000, A.D. 2025-Aug-02 00:00:00.0000, 6.040016271444562E+09, 9.308438000473745E+09, -5.144014275763369E+07,
2460896.500000000, A.D. 2025-Aug-09 00:00:00.0000, 6.038842520202900E+09, 9.309802764273726E+09, -5.114189633826113E+07,
2460903.500000000, A.D. 2025-Aug-16 00:00:00.0000, 6.037668542410145E+09, 9.311167118173035E+09, -5.084364712326527E+07,
2460910.500000000, A.D. 2025-Aug-23 00:00:00.0000, 6.036494339262133E+09, 9.312531059005346E+09, -5.054539530418634E+07,
2460917.500000000, A.D. 2025-Aug-30 00:00:00.0000, 6.035319913569071E+09, 9.313894583263313E+09, -5.024714125190306E+07,
2460924.500000000, A.D. 2025-Sep-06 00:00:00.0000, 6.034145270042697E+09, 9.315257688946049E+09, -4.994888539715338E+07,
2460931.500000000, A.D. 2025-Sep-13 00:00:00.0000, 6.032970413176904E+09, 9.316620376501043E+09, -4.965062796385384E+07,
2460938.500000000, A.D. 2025-Sep-20 00:00:00.0000, 6.031795345995037E+09, 9.317982647216242E+09, -4.935236898954487E+07,
2460945.500000000, A.D. 2025-Sep-27 00:00:00.0000, 6.030620070722446E+09, 9.319344502174044E+09, -4.905410847558451E+07,
2460952.500000000, A.D. 2025-Oct-04 00:00:00.0000, 6.029444589367552E+09, 9.320705942306599E+09, -4.875584643784523E+07,
2460959.500000000, A.D. 2025-Oct-11 00:00:00.0000, 6.028268903837811E+09, 9.322066968609573E+09, -4.845758290061712E+07,
2460966.500000000, A.D. 2025-Oct-18 00:00:00.0000, 6.027093015874253E+09, 9.323427582240284E+09, -4.815931788212061E+07,
2460973.500000000, A.D. 2025-Oct-25 00:00:00.0000, 6.025916926944066E+09, 9.324787784511482E+09, -4.786105138355827E+07,
2460980.500000000, A.D. 2025-Nov-01 00:00:00.0000, 6.024740638130697E+09, 9.326147576796705E+09, -4.756278338415194E+07,
2460987.500000000, A.D. 2025-Nov-08 00:00:00.0000, 6.023564150055943E+09, 9.327506960316231E+09, -4.726451384807396E+07,
2460994.500000000, A.D. 2025-Nov-15 00:00:00.0000, 6.022387462981847E+09, 9.328865935745550E+09, -4.696624276179361E+07,
2461001.500000000, A.D. 2025-Nov-22 00:00:00.0000, 6.021210577495036E+09, 9.330224502866896E+09, -4.666797022102213E+07,
2461008.500000000, A.D. 2025-Nov-29 00:00:00.0000, 6.020033495620242E+09, 9.331582661399302E+09, -4.636969646064568E+07,
2461015.500000000, A.D. 2025-Dec-06 00:00:00.0000, 6.018856220085514E+09, 9.332940412871534E+09, -4.607142163009501E+07,
2461022.500000000, A.D. 2025-Dec-13 00:00:00.0000, 6.017678752172755E+09, 9.334297760167953E+09, -4.577314562949896E+07,
2461029.500000000, A.D. 2025-Dec-20 00:00:00.0000, 6.016501091646725E+09, 9.335654705770788E+09, -4.547486824353743E+07,
2461036.500000000, A.D. 2025-Dec-27 00:00:00.0000, 6.015323237688697E+09, 9.337011251290579E+09, -4.517658926279306E+07,
2461043.500000000, A.D. 2026-Jan-03 00:00:00.0000, 6.014145189375541E+09, 9.338367397669786E+09, -4.487830850910664E+07,
2461050.500000000, A.D. 2026-Jan-10 00:00:00.0000, 6.012966945814005E+09, 9.339723145381308E+09, -4.458002583042812E+07,
2461057.500000000, A.D. 2026-Jan-17 00:00:00.0000, 6.011788506162737E+09, 9.341078494531206E+09, -4.428174109392691E+07,
2461064.500000000, A.D. 2026-Jan-24 00:00:00.0000, 6.010609869620012E+09, 9.342433444889137E+09, -4.398345418256044E+07,
2461071.500000000, A.D. 2026-Jan-31 00:00:00.0000, 6.009431035400607E+09, 9.343787995840069E+09, -4.368516499774885E+07,
2461078.500000000, A.D. 2026-Feb-07 00:00:00.0000, 6.008252002763332E+09, 9.345142146200813E+09, -4.338687347838545E+07,
2461085.500000000, A.D. 2026-Feb-14 00:00:00.0000, 6.007072771342297E+09, 9.346495893886980E+09, -4.308857966050577E+07,
2461092.500000000, A.D. 2026-Feb-21 00:00:00.0000, 6.005893342169457E+09, 9.347849236008183E+09, -4.279028376593924E+07,
2461099.500000000, A.D. 2026-Feb-28 00:00:00.0000, 6.004713718303606E+09, 9.349202170545582E+09, -4.249198612605524E+07,
2461106.500000000, A.D. 2026-Mar-07 00:00:00.0000, 6.003533903007261E+09, 9.350554697662144E+09, -4.219368691108227E+07,
2461113.500000000, A.D. 2026-Mar-14 00:00:00.0000, 6.002353898247166E+09, 9.351906818313036E+09, -4.189538611015368E+07,
2461120.500000000, A.D. 2026-Mar-21 00:00:00.0000, 6.001173705301268E+09, 9.353258533054203E+09, -4.159708368863440E+07,
2461127.500000000, A.D. 2026-Mar-28 00:00:00.0000, 5.999993325462795E+09, 9.354609842077829E+09, -4.129877965427446E+07,
2461134.500000000, A.D. 2026-Apr-04 00:00:00.0000, 5.998812760237705E+09, 9.355960745509026E+09, -4.100047405556870E+07,
2461141.500000000, A.D. 2026-Apr-11 00:00:00.0000, 5.997632011309429E+09, 9.357311243603800E+09, -4.070216696666718E+07,
2461148.500000000, A.D. 2026-Apr-18 00:00:00.0000, 5.996451080430307E+09, 9.358661336841564E+09, -4.040385847379398E+07,
2461155.500000000, A.D. 2026-Apr-25 00:00:00.0000, 5.995269969285806E+09, 9.360011025926905E+09, -4.010554866599369E+07,
2461162.500000000, A.D. 2026-May-02 00:00:00.0000, 5.994088679362501E+09, 9.361360311670975E+09, -3.980723763522291E+07,
2461169.500000000, A.D. 2026-May-09 00:00:00.0000, 5.992907211944856E+09, 9.362709194686283E+09, -3.950892550247383E+07,
2461176.500000000, A.D. 2026-May-16 00:00:00.0000, 5.991725568619080E+09, 9.364057675033260E+09, -3.921061249316835E+07,
2461183.500000000, A.D. 2026-May-23 00:00:00.0000, 5.990543752336207E+09, 9.365405752841000E+09, -3.891229898294544E+07,
2461190.500000000, A.D. 2026-May-30 00:00:00.0000, 5.989361766956163E+09, 9.366753430221764E+09, -3.861398529708910E+07,
2461197.500000000, A.D. 2026-Jun-06 00:00:00.0000, 5.988179614955581E+09, 9.368100711205719E+09, -3.831567150208426E+07,
2461204.500000000, A.D. 2026-Jun-13 00:00:00.0000, 5.986997296965419E+09, 9.369447599894863E+09, -3.801735750942326E+07,
2461211.500000000, A.D. 2026-Jun-20 00:00:00.0000, 5.985814812637349E+09, 9.370794099762306E+09, -3.771904320677090E+07,
2461218.500000000, A.D. 2026-Jun-27 00:00:00.0000, 5.984632161140552E+09, 9.372140213757036E+09, -3.742072848873758E+07,
2461225.500000000, A.D. 2026-Jul-04 00:00:00.0000, 5.983449341288822E+09, 9.373485944439354E+09, -3.712241325085497E+07,
2461232.500000000, A.D. 2026-Jul-11 00:00:00.0000, 5.982266351551876E+09, 9.374831294015106E+09, -3.682409738110638E+07,
2461239.500000000, A.D. 2026-Jul-18 00:00:00.0000, 5.981083190043579E+09, 9.376176264294479E+09, -3.652578075566292E+07,
2461246.500000000, A.D. 2026-Jul-25 00:00:00.0000, 5.979899854511527E+09, 9.377520856578197E+09, -3.622746324109507E+07,
2461253.500000000, A.D. 2026-Aug-01 00:00:00.0000, 5.978716342376035E+09, 9.378865071423046E+09, -3.592914471157408E+07,
2461260.500000000, A.D. 2026-Aug-08 00:00:00.0000, 5.977532651033376E+09, 9.380208908250891E+09, -3.563082510386324E+07,
2461267.500000000, A.D. 2026-Aug-15 00:00:00.0000, 5.976348778838237E+09, 9.381552365251764E+09, -3.533250451145935E+07,
2461274.500000000, A.D. 2026-Aug-22 00:00:00.0000, 5.975164726004251E+09, 9.382895440802422E+09, -3.503418314831781E+07,
2461281.500000000, A.D. 2026-Aug-29 00:00:00.0000, 5.973980493133381E+09, 9.384238135027819E+09, -3.473586108443260E+07,
2461288.500000000, A.D. 2026-Sep-05 00:00:00.0000, 5.972796079507678E+09, 9.385580448637486E+09, -3.443753818334579E+07,
2461295.500000000, A.D. 2026-Sep-12 00:00:00.0000, 5.971611483598254E+09, 9.386922381532688E+09, -3.413921426277876E+07,
$$EOE